[{"OBJECT_NAME":"STARLINK-11450 [DTC]","OBJECT_ID":"2025-004H","EPOCH":"2026-03-09T05:12:23.915808","MEAN_MOTION":15.70833528,"ECCENTRICITY":0.00025257,"INCLINATION":43.0011,"RA_OF_ASC_NODE":73.6252,"ARG_OF_PERICENTER":295.4446,"MEAN_ANOMALY":64.616,"EPHEMERIS_TYPE":0,"CLASSIFICATION_TYPE":"U","NORAD_CAT_ID":62518,"ELEMENT_SET_NO":999,"REV_AT_EPOCH":6713,"BSTAR":0.0015395604,"MEAN_MOTION_DOT":0.00201925,"MEAN_MOTION_DDOT":0},{"OBJECT_NAME":"CRRES DEB [CANISTER]","OBJECT_ID":"1990-065M","EPOCH":"2026-03-07T15:06:36.023904","MEAN_MOTION":2.74710472,"ECCENTRICITY":0.6882278,"INCLINATION":17.9253,"RA_OF_ASC_NODE":226.4371,"ARG_OF_PERICENTER":358.9534,"MEAN_ANOMALY":359.992,"EPHEMERIS_TYPE":0,"CLASSIFICATION_TYPE":"U","NORAD_CAT_ID":21635,"ELEMENT_SET_NO":999,"REV_AT_EPOCH":12883,"BSTAR":0.00065202,"MEAN_MOTION_DOT":4.74e-6,"MEAN_MOTION_DDOT":0}]
